{"type": "FeatureCollection", "features": [ {"type": "Feature", "properties": {"norad_id": 66950, "name": "STARLINK-36111", "group": "last-30-days", "lat": 6.377358848828061, "lon": -16.14919450472822, "alt_km": 408.6942395621463, "timestamp": "2025-12-27T02:10:14.909380+00:00", "meta": {"OBJECT_NAME": "STARLINK-36111", "OBJECT_ID": "2025-286AB", "EPOCH": "2025-12-26T20:00:01.999008", "MEAN_MOTION": 15.53867479, "ECCENTRICITY": 0.0001214, "INCLINATION": 53.1594, "RA_OF_ASC_NODE": 340.281, "ARG_OF_PERICENTER": 90.847, "MEAN_ANOMALY": 278.7901, "EPHEMERIS_TYPE": 0, "CLASSIFICATION_TYPE": "U", "NORAD_CAT_ID": 66950, "ELEMENT_SET_NO": 999, "REV_AT_EPOCH": 425, "BSTAR": -0.034321, "MEAN_MOTION_DOT": -0.02009336, "MEAN_MOTION_DDOT": 0}, "tle": {"line1": "1 66950U 25286AB  25360.83335647 -.02009336  00000+0 -34321-1 0  9992", "line2": "2 66950  53.1594 340.2810 0001214  90.8470 278.7901 15.53867479  4259"}}, "geometry": {"type": "Point", "coordinates": [-16.14919450472822, 6.377358848828061]}}, {"type": "Feature", "properties": {"norad_id": 66951, "name": "STARLINK-35999", "group": "last-30-days", "lat": 7.907004658494646, "lon": -14.983218230044569, "alt_km": 408.6752584849819, "timestamp": "2025-12-27T02:10:14.909392+00:00", "meta": {"OBJECT_NAME": "STARLINK-35999", "OBJECT_ID": "2025-286AC", "EPOCH": "2025-12-26T20:00:01.999008", "MEAN_MOTION": 15.53864744, "ECCENTRICITY": 0.0001059, "INCLINATION": 53.1596, "RA_OF_ASC_NODE": 340.2769, "ARG_OF_PERICENTER": 110.2242, "MEAN_ANOMALY": 261.3319, "EPHEMERIS_TYPE": 0, "CLASSIFICATION_TYPE": "U", "NORAD_CAT_ID": 66951, "ELEMENT_SET_NO": 999, "REV_AT_EPOCH": 425, "BSTAR": -0.034245, "MEAN_MOTION_DOT": -0.02005088, "MEAN_MOTION_DDOT": 0}, "tle": {"line1": "1 66951U 25286AC  25360.83335647 -.02005088  00000+0 -34245-1 0  9998", "line2": "2 66951  53.1596 340.2769 0001059 110.2242 261.3319 15.53864744  4259"}}, "geometry": {"type": "Point", "coordinates": [-14.983218230044569, 7.907004658494646]}}, {"type": "Feature", "properties": {"norad_id": 66952, "name": "STARLINK-36122", "group": "last-30-days", "lat": 4.848845145962202, "lon": -17.305303627657537, "alt_km": 409.1004067065951, "timestamp": "2025-12-27T02:10:14.909402+00:00", "meta": {"OBJECT_NAME": "STARLINK-36122", "OBJECT_ID": "2025-286AD", "EPOCH": "2025-12-26T20:00:01.999008", "MEAN_MOTION": 15.53864577, "ECCENTRICITY": 0.000113, "INCLINATION": 53.1595, "RA_OF_ASC_NODE": 340.2852, "ARG_OF_PERICENTER": 104.1106, "MEAN_ANOMALY": 263.612, "EPHEMERIS_TYPE": 0, "CLASSIFICATION_TYPE": "U", "NORAD_CAT_ID": 66952, "ELEMENT_SET_NO": 999, "REV_AT_EPOCH": 425, "BSTAR": -0.034242, "MEAN_MOTION_DOT": -0.02004996, "MEAN_MOTION_DDOT": 0}, "tle": {"line1": "1 66952U 25286AD  25360.83335647 -.02004996  00000+0 -34242-1 0  9993", "line2": "2 66952  53.1595 340.2852 0001130 104.1106 263.6120 15.53864577  4252"}}, "geometry": {"type": "Point", "coordinates": [-17.305303627657537, 4.848845145962202]}}, {"type": "Feature", "properties": {"norad_id": 66953, "name": "HULIANWANG DIGUI-114", "group": "last-30-days", "lat": -36.88248924360905, "lon": 163.574920123478, "alt_km": 1015.2902887530481, "timestamp": "2025-12-27T02:10:14.909423+00:00", "meta": {"OBJECT_NAME": "HULIANWANG DIGUI-114", "OBJECT_ID": "2025-287A", "EPOCH": "2025-12-20T09:09:14.655168", "MEAN_MOTION": 13.66161866, "ECCENTRICITY": 0.00096738, "INCLINATION": 86.496, "RA_OF_ASC_NODE": 343.3747, "ARG_OF_PERICENTER": 185.0352, "MEAN_ANOMALY": 175.071, "EPHEMERIS_TYPE": 0, "CLASSIFICATION_TYPE": "U", "NORAD_CAT_ID": 66953, "ELEMENT_SET_NO": 999, "REV_AT_EPOCH": 157, "BSTAR": 3.033618e-06, "MEAN_MOTION_DOT": 1.9e-07, "MEAN_MOTION_DDOT": 0}, "tle": {"line1": "1 66953U 25287A   25354.38141962  .00000019  00000+0  30336-5 0  9995", "line2": "2 66953  86.4960 343.3747 0009673 185.0352 175.0710 13.66161866  1572"}}, "geometry": {"type": "Point", "coordinates": [163.574920123478, -36.88248924360905]}}, {"type": "Feature", "properties": {"norad_id": 66954, "name": "HULIANWANG DIGUI-115", "group": "last-30-days", "lat": -7.245622906504997, "lon": 161.40162866819375, "alt_km": 1026.419294306177, "timestamp": "2025-12-27T02:10:14.909438+00:00", "meta": {"OBJECT_NAME": "HULIANWANG DIGUI-115", "OBJECT_ID": "2025-287B", "EPOCH": "2025-12-24T22:10:56.489088", "MEAN_MOTION": 13.63539042, "ECCENTRICITY": 0.0003385, "INCLINATION": 86.5036, "RA_OF_ASC_NODE": 341.7372, "ARG_OF_PERICENTER": 109.9724, "MEAN_ANOMALY": 250.1798, "EPHEMERIS_TYPE": 0, "CLASSIFICATION_TYPE": "U", "NORAD_CAT_ID": 66954, "ELEMENT_SET_NO": 999, "REV_AT_EPOCH": 219, "BSTAR": 8.442119e-06, "MEAN_MOTION_DOT": 2.3e-07, "MEAN_MOTION_DDOT": 0}, "tle": {"line1": "1 66954U 25287B   25358.92426492  .00000023  00000+0  84421-5 0  9993", "line2": "2 66954  86.5036 341.7372 0003385 109.9724 250.1798 13.63539042  2198"}}, "geometry": {"type": "Point", "coordinates": [161.40162866819375, -7.245622906504997]}}, {"type": "Feature", "properties": {"norad_id": 66955, "name": "HULIANWANG DIGUI-116", "group": "last-30-days", "lat": -24.65939194696115, "lon": 162.5405707719533, "alt_km": 1026.5803372815972, "timestamp": "2025-12-27T02:10:14.909449+00:00", "meta": {"OBJECT_NAME": "HULIANWANG DIGUI-116", "OBJECT_ID": "2025-287C", "EPOCH": "2025-12-24T23:52:55.515936", "MEAN_MOTION": 13.64194122, "ECCENTRICITY": 0.00016332, "INCLINATION": 86.4919, "RA_OF_ASC_NODE": 341.6856, "ARG_OF_PERICENTER": 94.3011, "MEAN_ANOMALY": 265.8333, "EPHEMERIS_TYPE": 0, "CLASSIFICATION_TYPE": "U", "NORAD_CAT_ID": 66955, "ELEMENT_SET_NO": 999, "REV_AT_EPOCH": 220, "BSTAR": 0.0001652864, "MEAN_MOTION_DOT": 1.48e-06, "MEAN_MOTION_DDOT": 0}, "tle": {"line1": "1 66955U 25287C   25358.99508699  .00000148  00000+0  16529-3 0  9991", "line2": "2 66955  86.4919 341.6856 0001633  94.3011 265.8333 13.64194122  2201"}}, "geometry": {"type": "Point", "coordinates": [162.5405707719533, -24.65939194696115]}}, {"type": "Feature", "properties": {"norad_id": 66956, "name": "HULIANWANG DIGUI-117", "group": "last-30-days", "lat": -41.313434683767625, "lon": 164.02563300445132, "alt_km": 1025.7967958813451, "timestamp": "2025-12-27T02:10:14.909459+00:00", "meta": {"OBJECT_NAME": "HULIANWANG DIGUI-117", "OBJECT_ID": "2025-287D", "EPOCH": "2025-12-24T22:03:29.281824", "MEAN_MOTION": 13.64670553, "ECCENTRICITY": 0.00010447, "INCLINATION": 86.4976, "RA_OF_ASC_NODE": 341.7257, "ARG_OF_PERICENTER": 103.5815, "MEAN_ANOMALY": 256.5458, "EPHEMERIS_TYPE": 0, "CLASSIFICATION_TYPE": "U", "NORAD_CAT_ID": 66956, "ELEMENT_SET_NO": 999, "REV_AT_EPOCH": 219, "BSTAR": 9.025962e-06, "MEAN_MOTION_DOT": 2.4e-07, "MEAN_MOTION_DDOT": 0}, "tle": {"line1": "1 66956U 25287D   25358.91908891  .00000024  00000+0  90260-5 0  9991", "line2": "2 66956  86.4976 341.7257 0001044 103.5815 256.5458 13.64670553  2192"}}, "geometry": {"type": "Point", "coordinates": [164.02563300445132, -41.313434683767625]}}, {"type": "Feature", "properties": {"norad_id": 66957, "name": "HULIANWANG DIGUI-118", "group": "last-30-days", "lat": -84.48078433496333, "lon": -58.44393322317946, "alt_km": 1018.0607246898235, "timestamp": "2025-12-27T02:10:14.909469+00:00", "meta": {"OBJECT_NAME": "HULIANWANG DIGUI-118", "OBJECT_ID": "2025-287E", "EPOCH": "2025-12-21T00:50:13.849728", "MEAN_MOTION": 13.6751011, "ECCENTRICITY": 0.00054729, "INCLINATION": 86.4946, "RA_OF_ASC_NODE": 343.1304, "ARG_OF_PERICENTER": 170.9065, "MEAN_ANOMALY": 189.2194, "EPHEMERIS_TYPE": 0, "CLASSIFICATION_TYPE": "U", "NORAD_CAT_ID": 66957, "ELEMENT_SET_NO": 999, "REV_AT_EPOCH": 166, "BSTAR": 0.00013223305, "MEAN_MOTION_DOT": 1.28e-06, "MEAN_MOTION_DDOT": 0}, "tle": {"line1": "1 66957U 25287E   25355.03488252  .00000128  00000+0  13223-3 0  9993", "line2": "2 66957  86.4946 343.1304 0005472 170.9065 189.2194 13.67510110  1668"}}, "geometry": {"type": "Point", "coordinates": [-58.44393322317946, -84.48078433496333]}}, {"type": "Feature", "properties": {"norad_id": 66958, "name": "CZ-6A R/B", "group": "last-30-days", "lat": -27.819265582694875, "lon": 162.4923178955785, "alt_km": 983.8019419271977, "timestamp": "2025-12-27T02:10:14.909481+00:00", "meta": {"OBJECT_NAME": "CZ-6A R/B", "OBJECT_ID": "2025-287F", "EPOCH": "2025-12-26T14:51:23.311584", "MEAN_MOTION": 13.94921806, "ECCENTRICITY": 0.01070747, "INCLINATION": 86.5066, "RA_OF_ASC_NODE": 340.8243, "ARG_OF_PERICENTER": 60.4306, "MEAN_ANOMALY": 300.7488, "EPHEMERIS_TYPE": 0, "CLASSIFICATION_TYPE": "U", "NORAD_CAT_ID": 66958, "ELEMENT_SET_NO": 999, "REV_AT_EPOCH": 247, "BSTAR": 7.1213941e-05, "MEAN_MOTION_DOT": 1.19e-06, "MEAN_MOTION_DDOT": 0}, "tle": {"line1": "1 66958U 25287F   25360.61901981  .00000119  00000+0  71214-4 0  9998", "line2": "2 66958  86.5066 340.8243 0107074  60.4306 300.7488 13.94921806  2475"}}, "geometry": {"type": "Point", "coordinates": [162.4923178955785, -27.819265582694875]}}, {"type": "Feature", "properties": {"norad_id": 66959, "name": "STARLINK-35887", "group": "last-30-days", "lat": -19.144079745041175, "lon": -78.18070941122079, "alt_km": 396.58671087998846, "timestamp": "2025-12-27T02:10:14.909491+00:00", "meta": {"OBJECT_NAME": "STARLINK-35887", "OBJECT_ID": "2025-288A", "EPOCH": "2025-12-26T20:00:01.999008", "MEAN_MOTION": 15.58686892, "ECCENTRICITY": 0.0001188, "INCLINATION": 43, "RA_OF_ASC_NODE": 81.4686, "ARG_OF_PERICENTER": 288.8237, "MEAN_ANOMALY": 276.042, "EPHEMERIS_TYPE": 0, "CLASSIFICATION_TYPE": "U", "NORAD_CAT_ID": 66959, "ELEMENT_SET_NO": 999, "REV_AT_EPOCH": 409, "BSTAR": -0.029044, "MEAN_MOTION_DOT": -0.02011464, "MEAN_MOTION_DDOT": 0}, "tle": {"line1": "1 66959U 25288A   25360.83335647 -.02011464  00000+0 -29044-1 0  9994", "line2": "2 66959  43.0000  81.4686 0001188 288.8237 276.0420 15.58686892  4095"}}, "geometry": {"type": "Point", "coordinates": [-78.18070941122079, -19.144079745041175]}}]}